{
  "fetched_at": "2026-04-24T13:24:08.305655+00:00",
  "satellites": {
    "57166": {
      "name": "Meteor M2-3",
      "tle_line1": "1 57166U 23091A   26114.27747699 -.00000015  00000+0  12305-4 0  9996",
      "tle_line2": "2 57166  98.6126 170.3468 0003371 344.0347  16.0725 14.24042027146847"
    },
    "59051": {
      "name": "Meteor M2-4",
      "tle_line1": "1 59051U 24039A   26114.30134824  .00000024  00000+0  30319-4 0  9992",
      "tle_line2": "2 59051  98.6973  74.2894 0006563 334.8756  25.2101 14.22423655111608"
    },
    "38771": {
      "name": "MetOp-B",
      "tle_line1": "1 38771U 12049A   26114.26970529  .00000078  00000+0  55303-4 0  9990",
      "tle_line2": "2 38771  98.6552 166.8324 0003336 128.4500 231.6977 14.21432495705606"
    },
    "43689": {
      "name": "MetOp-C",
      "tle_line1": "1 43689U 18087A   26114.22145121  .00000073  00000+0  53193-4 0  9990",
      "tle_line2": "2 43689  98.6683 174.8013 0000944  41.9970 318.1280 14.21511076387169"
    }
  }
}